CAS-2T & KS-1Q          
1 41847U 16066G   21176.40641938  .00000164  00000-0  35111-4 0  9991
2 41847  98.6007 235.5716 0364970 196.4810 162.4254 14.38199874243022
NAYIF-1 (EO-88)         
1 42017U 17008BX  21175.89454010  .00002553  00000-0  95406-4 0  9990
2 42017  97.3156 243.3610 0007731  85.7218 274.4905 15.28234916242397
ZHUHAI-1 02 (CAS-4B)    
1 42759U 17034B   21176.64299620  .00000204  00000-0  25570-4 0  9996
2 42759  43.0165 136.0584 0009299 224.8155 304.2884 15.10236324222384
ZHUHAI-1 01 (CAS-4A)    
1 42761U 17034D   21176.36301014  .00000326  00000-0  32823-4 0  9993
2 42761  43.0155 136.6455 0009639 224.4016 272.3037 15.10323847222347
MAX VALIER SAT          
1 42778U 17036P   21176.38193150  .00001564  00000-0  68012-4 0  9999
2 42778  97.2543 224.7330 0013003 141.8596 218.3564 15.23644150222491
RADFXSAT (FOX-1B)       
1 43017U 17073E   21176.51621270  .00000510  00000-0  45347-4 0  9997
2 43017  97.7064  80.1848 0253341 274.1465  83.0833 14.79578691194316
FOX-1D (AO-92)          
1 43137U 18004AC  21176.46770016  .00001752  00000-0  72403-4 0  9994
2 43137  97.4065 250.4172 0008948 172.2576 187.8802 15.25295449191888
DIWATA-2B               
1 43678U 18084H   21175.29533243  .00000248  00000-0  30412-4 0  9994
2 43678  97.9246 300.6101 0010448  36.3300 323.8531 14.91756358144452
ES'HAIL 2               
1 43700U 18090A   21176.24445793  .00000138  00000-0  00000-0 0  9999
2 43700   0.0152  40.6176 0001593  71.6171 275.1542  1.00271680  9447
FOX-1CLIFF (AO-95)      
1 43770U 18099N   21176.47991295  .00000813  00000-0  78722-4 0  9993
2 43770  97.6648 246.4897 0015341  36.7409 323.4860 14.95338832139652
ITASAT 1                
1 43786U 18099AE  21176.46445339  .00000569  00000-0  56223-4 0  9992
2 43786  97.6664 247.1583 0015692  29.6440 330.5667 14.95628414139687
JY1SAT (JO-97)          
1 43803U 18099AX  21176.15941679  .00000433  00000-0  43714-4 0  9997
2 43803  97.6630 246.6107 0015855  30.6721 329.5424 14.95881398139648
UWE-4                   
1 43880U 18111E   21176.47211607  .00000459  00000-0  45001-4 0  9992
2 43880  97.6862  84.0688 0013581  78.6330 281.6416 14.96880161136284
PSAT2 (NO-104)          
1 44354U 19036R   21176.41587927  .00019215  00000-0  25336-3 0  9999
2 44354  28.5294  73.9547 0324634   2.4035 357.8048 15.13721585110187
BRICSAT2 (NO-103)       
1 44355U 19036S   21176.29928410  .00052593 -51309-5  55713-3 0  9994
2 44355  28.5252  28.4106 0261415  76.5308 286.4280 15.30264283110631
JAISAT-1                
1 44419U 19038F   21176.43815038  .00001329  00000-0  77087-4 0  9990
2 44419  97.5888 141.1096 0019378 286.6407  73.2696 15.13796899109003
DUCHIFAT-3              
1 44854U 19089C   21175.78504644  .00000453  00000-0  42538-4 0  9994
2 44854  36.9671  57.2750 0008062 208.5759 151.4477 14.99513039 84204
RS-44 & BREEZE-KM R/B   
1 44909U 19096E   21176.52409889  .00000017  00000-0  17019-4 0  9993
2 44909  82.5215 107.4516 0218598  74.2818 288.2277 12.79710388 69858
ORBITAL FACTORY 2 (OF-2)
1 45113U 19071C   21176.47407131  .00002957  00000-0  94326-4 0  9997
2 45113  51.6433 358.6220 0011392 324.7545  35.2684 15.35832637 78400
HUSKYSAT-1 (HO-107)     
1 45119U 19071J   21176.55041914  .00002698  00000-0  86974-4 0  9997
2 45119  51.6426 357.6269 0010787 321.6227  38.3987 15.35856015 78417
BY70-2                  
1 45857U 20042B   21176.31317606  .00001090  00000-0  16168-3 0  9996
2 45857  97.9839 251.9773 0011659 179.4544 249.9708 14.77053743 52700
SALSAT                  
1 46495U 20068K   21176.58073311  .00000420  00000-0  35297-4 0  9995
2 46495  97.6933 114.0271 0018171  46.1908 314.0822 15.03459672 40555
BY70-3                  
1 46839U 20079N   21176.46654027  .00002966  00000-0  93211-4 0  9992
2 46839  97.2409 250.1641 0007657 164.6278 252.4250 15.33739574 35433
RADFXSAT-2 (AO-109)     
1 47311U 21002C   21176.57159140  .00001445  00000-0  74350-4 0  9997
2 47311  60.6857 260.8049 0038293  52.8968 307.5608 15.21684727 24101
UVSQ-SAT                
1 47438U 21006AB  21176.44938327  .00001125  00000-0  66982-4 0  9996
2 47438  97.4868 237.5300 0014351  73.3968 286.8838 15.13161498 23265
DIY-1 (ARDUIQUBE)       
1 47963U 21022AH  21176.52725524  .00002396  00000-0  16240-3 0  9991
2 47963  97.5588  78.7184 0017787 279.4221  80.4996 15.07293243 13113
